{
    "links": {
        "self": "http://www.neowsapp.com/rest/v1/neo/3772988?api_key=iIulBulltgU6a56xZRHN4H3l9WmuAYTsLGpBGhQ2"
    },
    "id": "3772988",
    "neo_reference_id": "3772988",
    "name": "(2017 FW101)",
    "designation": "2017 FW101",
    "nasa_jpl_url": "http://ssd.jpl.nasa.gov/sbdb.cgi?sstr=3772988",
    "absolute_magnitude_h": 25.0,
    "estimated_diameter": {
        "kilometers": {
            "estimated_diameter_min": 0.02658,
            "estimated_diameter_max": 0.0594346868
        },
        "meters": {
            "estimated_diameter_min": 26.58,
            "estimated_diameter_max": 59.4346868419
        },
        "miles": {
            "estimated_diameter_min": 0.0165160412,
            "estimated_diameter_max": 0.0369309908
        },
        "feet": {
            "estimated_diameter_min": 87.2047272,
            "estimated_diameter_max": 194.9956979785
        }
    },
    "is_potentially_hazardous_asteroid": false,
    "close_approach_data": [
        {
            "close_approach_date": "2017-03-18",
            "close_approach_date_full": "2017-Mar-18 16:41",
            "epoch_date_close_approach": 1489855260000,
            "relative_velocity": {
                "kilometers_per_second": "8.7746356177",
                "kilometers_per_hour": "31588.6882236848",
                "miles_per_hour": "19627.9824132113"
            },
            "miss_distance": {
                "astronomical": "0.0521010331",
                "lunar": "20.2673018759",
                "kilometers": "7794203.576559497",
                "miles": "4843093.5252431786"
            },
            "orbiting_body": "Earth"
        }
    ],
    "orbital_data": {
        "orbit_id": "4",
        "orbit_determination_date": "2017-04-06 08:19:00",
        "first_observation_date": "2017-03-27",
        "last_observation_date": "2017-03-31",
        "data_arc_in_days": 4,
        "observations_used": 38,
        "orbit_uncertainty": "8",
        "minimum_orbit_intersection": ".0509978",
        "jupiter_tisserand_invariant": "4.550",
        "epoch_osculation": "2457840.5",
        "eccentricity": ".2938686577424925",
        "semi_major_axis": "1.456864573201687",
        "inclination": "14.72196532756718",
        "ascending_node_longitude": "181.5993628771401",
        "orbital_period": "642.2841440619104",
        "perihelion_distance": "1.028737736562318",
        "perihelion_argument": "335.7684272505102",
        "aphelion_distance": "1.884991409841056",
        "perihelion_time": "2457811.345196379742",
        "mean_anomaly": "16.34125550245747",
        "mean_motion": ".5604995909182825",
        "equinox": "J2000",
        "orbit_class": {
            "orbit_class_type": "AMO",
            "orbit_class_description": "Near-Earth asteroid orbits similar to that of 1221 Amor",
            "orbit_class_range": "1.017 AU < q (perihelion) < 1.3 AU"
        }
    },
    "is_sentry_object": false
}